HAWK-2C                 
1 47502U 21006CT  26068.67595434  .00008129  00000+0  25493-3 0  9997
2 47502  97.2417 114.9961 0006943 184.0877 176.0310 15.33286436284247
STARLINK-32077          
1 60344U 24136R   26068.41154516  .00000122  00000+0  16244-4 0  9997
2 60344  53.1613  76.8348 0001422  76.8529 283.2631 15.30189785 89627
